RADARSAT-2              
1 32382U 07061A   26202.32353242  .00000035  00000+0  30671-4 0  9996
2 32382  98.5792 208.7692 0001338  86.3263 273.8073 14.29984265970834
